IRIDIUM 144             
1 43249U 18030A   23330.51853525  .00000292  00000+0  97153-4 0  9990
2 43249  86.3940 320.6297 0002327  89.2373 270.9089 14.34218944296337
IRIDIUM 149             
1 43250U 18030B   23330.52486147  .00000286  00000+0  95167-4 0  9991
2 43250  86.3940 320.6042 0002495  88.1222 272.0260 14.34221319296338
IRIDIUM 157             
1 43251U 18030C   23330.47410998  .00000321  00000+0  10741-3 0  9991
2 43251  86.3941 320.6579 0001987  91.1873 268.9550 14.34219296296300
IRIDIUM 140             
1 43252U 18030D   23330.49314529  .00000320  00000+0  10704-3 0  9995
2 43252  86.3941 320.6648 0002515  94.9995 265.1488 14.34220926296369
IRIDIUM 145             
1 43253U 18030E   23330.48046582  .00000308  00000+0  10284-3 0  9995
2 43253  86.3941 320.6445 0002563  87.3798 272.7691 14.34221009296290
IRIDIUM 146             
1 43254U 18030F   23330.53119538  .00000274  00000+0  90724-4 0  9994
2 43254  86.3941 320.6389 0002475  85.3393 274.8085 14.34218821296310
IRIDIUM 148             
1 43255U 18030G   23330.49950890  .00000310  00000+0  10373-3 0  9996
2 43255  86.3942 320.6810 0002301  81.8865 278.2592 14.34219055296348
IRIDIUM 142             
1 43256U 18030H   23330.46777813  .00000307  00000+0  10245-3 0  9990
2 43256  86.3940 320.6172 0002260  84.4994 275.6459 14.34221361296306
